SL-14 R/B               
1 21423U 91042B   26022.36688057  .00000741  00000+0  90772-4 0  9993
2 21423  82.4918 263.6301 0018000  37.3780 322.8682 14.81782919846216
ERS-1                   
1 21574U 91050A   26022.47200957  .00000660  00000+0  22572-3 0  9992
2 21574  98.7897  39.5452 0031580 341.2945  18.7079 14.39404909809082
ARIANE 40 R/B           
1 21610U 91050F   26022.42476514  .00000707  00000+0  22435-3 0  9992
2 21610  98.2106  76.3761 0002758 192.5233 167.5890 14.42853313812321
INTERCOSMOS 25          
1 21819U 91086A   26022.33900212  .00001401  00000+0  27647-3 0  9991
2 21819  82.6093 338.0192 1486078 216.8147 132.1344 12.11868894491077
SL-8 R/B                
1 21876U 92008B   26022.49671575  .00000131  00000+0  11934-3 0  9994
2 21876  82.9288 302.1367 0033307 263.8023 270.9127 13.75967573703062
SL-8 R/B                
1 21938U 92020B   26022.50343968  .00000196  00000+0  18684-3 0  9991
2 21938  82.9302 188.0458 0030149  67.8837 356.9526 13.75540502694781
USA 81                  
1 21949U 92023A   26022.34283587  .00000410  00000+0  14445-3 0  9998
2 21949  85.0110 158.1619 0002039 115.7725 244.3679 14.32346806 88159
COSMOS 2219             
1 22219U 92076A   26022.47020402 -.00000086  00000+0 -20310-4 0  9996
2 22219  71.0614 114.6927 0020839 271.1698  88.7037 14.14081281711847
SL-16 R/B               
1 22220U 92076B   26022.18147203 -.00000096  00000+0 -24200-4 0  9998
2 22220  71.0005 286.3434 0012520 176.7295 296.7187 14.16850672715249
COSMOS 2221             
1 22236U 92080A   26022.28804913  .00004071  00000+0  36034-3 0  9991
2 22236  82.5069 323.5115 0014496 356.2884   3.8227 14.95974976773850
SL-16 R/B               
1 22285U 92093B   26022.45046289  .00000224  00000+0  13898-3 0  9991
2 22285  71.0222 101.3377 0004231 345.5510  14.5491 14.15442233706613
COSMOS 2228             
1 22286U 92094A   26022.46838784  .00003911  00000+0  33685-3 0  9995
2 22286  82.5181 281.5651 0019596  96.3065 264.0390 14.96960089769147
