CCSDS_OMM_VERS = 2.0
CREATION_DATE  = 
ORIGINATOR     = 

OBJECT_NAME    = SL-14 R/B
OBJECT_ID      = 1991-042B
CENTER_NAME    = EARTH
REF_FRAME      = TEME
TIME_SYSTEM    = UTC
MEAN_ELEMENT_THEORY = SGP/SGP4

EPOCH          = 2026-01-22T08:48:18.481248
MEAN_MOTION    = 14.81782919
ECCENTRICITY   = .0018
INCLINATION    = 82.4918
RA_OF_ASC_NODE = 263.6301
ARG_OF_PERICENTER = 37.3780
MEAN_ANOMALY   = 322.8682

EPHEMERIS_TYPE = 0
CLASSIFICATION_TYPE = U
NORAD_CAT_ID   = 21423
ELEMENT_SET_NO = 999
REV_AT_EPOCH   = 84621
BSTAR          = .90772E-4
MEAN_MOTION_DOT = .741E-5
MEAN_MOTION_DDOT = 0

CCSDS_OMM_VERS = 2.0
CREATION_DATE  = 
ORIGINATOR     = 

OBJECT_NAME    = ERS-1
OBJECT_ID      = 1991-050A
CENTER_NAME    = EARTH
REF_FRAME      = TEME
TIME_SYSTEM    = UTC
MEAN_ELEMENT_THEORY = SGP/SGP4

EPOCH          = 2026-01-22T11:19:41.626848
MEAN_MOTION    = 14.39404909
ECCENTRICITY   = .003158
INCLINATION    = 98.7897
RA_OF_ASC_NODE = 39.5452
ARG_OF_PERICENTER = 341.2945
MEAN_ANOMALY   = 18.7079

EPHEMERIS_TYPE = 0
CLASSIFICATION_TYPE = U
NORAD_CAT_ID   = 21574
ELEMENT_SET_NO = 999
REV_AT_EPOCH   = 80908
BSTAR          = .22572E-3
MEAN_MOTION_DOT = .66E-5
MEAN_MOTION_DDOT = 0

CCSDS_OMM_VERS = 2.0
CREATION_DATE  = 
ORIGINATOR     = 

OBJECT_NAME    = ARIANE 40 R/B
OBJECT_ID      = 1991-050F
CENTER_NAME    = EARTH
REF_FRAME      = TEME
TIME_SYSTEM    = UTC
MEAN_ELEMENT_THEORY = SGP/SGP4

EPOCH          = 2026-01-22T10:11:39.708096
MEAN_MOTION    = 14.42853313
ECCENTRICITY   = .0002758
INCLINATION    = 98.2106
RA_OF_ASC_NODE = 76.3761
ARG_OF_PERICENTER = 192.5233
MEAN_ANOMALY   = 167.5890

EPHEMERIS_TYPE = 0
CLASSIFICATION_TYPE = U
NORAD_CAT_ID   = 21610
ELEMENT_SET_NO = 999
REV_AT_EPOCH   = 81232
BSTAR          = .22435E-3
MEAN_MOTION_DOT = .707E-5
MEAN_MOTION_DDOT = 0

CCSDS_OMM_VERS = 2.0
CREATION_DATE  = 
ORIGINATOR     = 

OBJECT_NAME    = INTERCOSMOS 25
OBJECT_ID      = 1991-086A
CENTER_NAME    = EARTH
REF_FRAME      = TEME
TIME_SYSTEM    = UTC
MEAN_ELEMENT_THEORY = SGP/SGP4

EPOCH          = 2026-01-22T08:08:09.783168
MEAN_MOTION    = 12.11868894
ECCENTRICITY   = .1486078
INCLINATION    = 82.6093
RA_OF_ASC_NODE = 338.0192
ARG_OF_PERICENTER = 216.8147
MEAN_ANOMALY   = 132.1344

EPHEMERIS_TYPE = 0
CLASSIFICATION_TYPE = U
NORAD_CAT_ID   = 21819
ELEMENT_SET_NO = 999
REV_AT_EPOCH   = 49107
BSTAR          = .27647E-3
MEAN_MOTION_DOT = .1401E-4
MEAN_MOTION_DDOT = 0

CCSDS_OMM_VERS = 2.0
CREATION_DATE  = 
ORIGINATOR     = 

OBJECT_NAME    = SL-8 R/B
OBJECT_ID      = 1992-008B
CENTER_NAME    = EARTH
REF_FRAME      = TEME
TIME_SYSTEM    = UTC
MEAN_ELEMENT_THEORY = SGP/SGP4

EPOCH          = 2026-01-22T11:55:16.240800
MEAN_MOTION    = 13.75967573
ECCENTRICITY   = .0033307
INCLINATION    = 82.9288
RA_OF_ASC_NODE = 302.1367
ARG_OF_PERICENTER = 263.8023
MEAN_ANOMALY   = 270.9127

EPHEMERIS_TYPE = 0
CLASSIFICATION_TYPE = U
NORAD_CAT_ID   = 21876
ELEMENT_SET_NO = 999
REV_AT_EPOCH   = 70306
BSTAR          = .11934E-3
MEAN_MOTION_DOT = .131E-5
MEAN_MOTION_DDOT = 0

CCSDS_OMM_VERS = 2.0
CREATION_DATE  = 
ORIGINATOR     = 

OBJECT_NAME    = SL-8 R/B
OBJECT_ID      = 1992-020B
CENTER_NAME    = EARTH
REF_FRAME      = TEME
TIME_SYSTEM    = UTC
MEAN_ELEMENT_THEORY = SGP/SGP4

EPOCH          = 2026-01-22T12:04:57.188352
MEAN_MOTION    = 13.75540502
ECCENTRICITY   = .0030149
INCLINATION    = 82.9302
RA_OF_ASC_NODE = 188.0458
ARG_OF_PERICENTER = 67.8837
MEAN_ANOMALY   = 356.9526

EPHEMERIS_TYPE = 0
CLASSIFICATION_TYPE = U
NORAD_CAT_ID   = 21938
ELEMENT_SET_NO = 999
REV_AT_EPOCH   = 69478
BSTAR          = .18684E-3
MEAN_MOTION_DOT = .196E-5
MEAN_MOTION_DDOT = 0

CCSDS_OMM_VERS = 2.0
CREATION_DATE  = 
ORIGINATOR     = 

OBJECT_NAME    = USA 81
OBJECT_ID      = 1992-023A
CENTER_NAME    = EARTH
REF_FRAME      = TEME
TIME_SYSTEM    = UTC
MEAN_ELEMENT_THEORY = SGP/SGP4

EPOCH          = 2026-01-22T08:13:41.019168
MEAN_MOTION    = 14.32346806
ECCENTRICITY   = .0002039
INCLINATION    = 85.0110
RA_OF_ASC_NODE = 158.1619
ARG_OF_PERICENTER = 115.7725
MEAN_ANOMALY   = 244.3679

EPHEMERIS_TYPE = 0
CLASSIFICATION_TYPE = U
NORAD_CAT_ID   = 21949
ELEMENT_SET_NO = 999
REV_AT_EPOCH   = 8815
BSTAR          = .14445E-3
MEAN_MOTION_DOT = .41E-5
MEAN_MOTION_DDOT = 0

CCSDS_OMM_VERS = 2.0
CREATION_DATE  = 
ORIGINATOR     = 

OBJECT_NAME    = COSMOS 2219
OBJECT_ID      = 1992-076A
CENTER_NAME    = EARTH
REF_FRAME      = TEME
TIME_SYSTEM    = UTC
MEAN_ELEMENT_THEORY = SGP/SGP4

EPOCH          = 2026-01-22T11:17:05.627328
MEAN_MOTION    = 14.14081281
ECCENTRICITY   = .0020839
INCLINATION    = 71.0614
RA_OF_ASC_NODE = 114.6927
ARG_OF_PERICENTER = 271.1698
MEAN_ANOMALY   = 88.7037

EPHEMERIS_TYPE = 0
CLASSIFICATION_TYPE = U
NORAD_CAT_ID   = 22219
ELEMENT_SET_NO = 999
REV_AT_EPOCH   = 71184
BSTAR          = -.2031E-4
MEAN_MOTION_DOT = -.86E-6
MEAN_MOTION_DDOT = 0

CCSDS_OMM_VERS = 2.0
CREATION_DATE  = 
ORIGINATOR     = 

OBJECT_NAME    = SL-16 R/B
OBJECT_ID      = 1992-076B
CENTER_NAME    = EARTH
REF_FRAME      = TEME
TIME_SYSTEM    = UTC
MEAN_ELEMENT_THEORY = SGP/SGP4

EPOCH          = 2026-01-22T04:21:19.183392
MEAN_MOTION    = 14.16850672
ECCENTRICITY   = .00125201
INCLINATION    = 71.0005
RA_OF_ASC_NODE = 286.3434
ARG_OF_PERICENTER = 176.7295
MEAN_ANOMALY   = 296.7187

EPHEMERIS_TYPE = 0
CLASSIFICATION_TYPE = U
NORAD_CAT_ID   = 22220
ELEMENT_SET_NO = 999
REV_AT_EPOCH   = 71524
BSTAR          = -.24199647E-4
MEAN_MOTION_DOT = -.96E-6
MEAN_MOTION_DDOT = 0

CCSDS_OMM_VERS = 2.0
CREATION_DATE  = 
ORIGINATOR     = 

OBJECT_NAME    = COSMOS 2221
OBJECT_ID      = 1992-080A
CENTER_NAME    = EARTH
REF_FRAME      = TEME
TIME_SYSTEM    = UTC
MEAN_ELEMENT_THEORY = SGP/SGP4

EPOCH          = 2026-01-22T06:54:47.444832
MEAN_MOTION    = 14.95974976
ECCENTRICITY   = .0014496
INCLINATION    = 82.5069
RA_OF_ASC_NODE = 323.5115
ARG_OF_PERICENTER = 356.2884
MEAN_ANOMALY   = 3.8227

EPHEMERIS_TYPE = 0
CLASSIFICATION_TYPE = U
NORAD_CAT_ID   = 22236
ELEMENT_SET_NO = 999
REV_AT_EPOCH   = 77385
BSTAR          = .36034E-3
MEAN_MOTION_DOT = .4071E-4
MEAN_MOTION_DDOT = 0

CCSDS_OMM_VERS = 2.0
CREATION_DATE  = 
ORIGINATOR     = 

OBJECT_NAME    = SL-16 R/B
OBJECT_ID      = 1992-093B
CENTER_NAME    = EARTH
REF_FRAME      = TEME
TIME_SYSTEM    = UTC
MEAN_ELEMENT_THEORY = SGP/SGP4

EPOCH          = 2026-01-22T10:48:39.993696
MEAN_MOTION    = 14.15442233
ECCENTRICITY   = .0004231
INCLINATION    = 71.0222
RA_OF_ASC_NODE = 101.3377
ARG_OF_PERICENTER = 345.5510
MEAN_ANOMALY   = 14.5491

EPHEMERIS_TYPE = 0
CLASSIFICATION_TYPE = U
NORAD_CAT_ID   = 22285
ELEMENT_SET_NO = 999
REV_AT_EPOCH   = 70661
BSTAR          = .13898E-3
MEAN_MOTION_DOT = .224E-5
MEAN_MOTION_DDOT = 0

CCSDS_OMM_VERS = 2.0
CREATION_DATE  = 
ORIGINATOR     = 

OBJECT_NAME    = COSMOS 2228
OBJECT_ID      = 1992-094A
CENTER_NAME    = EARTH
REF_FRAME      = TEME
TIME_SYSTEM    = UTC
MEAN_ELEMENT_THEORY = SGP/SGP4

EPOCH          = 2026-01-22T11:14:28.709376
MEAN_MOTION    = 14.96960089
ECCENTRICITY   = .0019596
INCLINATION    = 82.5181
RA_OF_ASC_NODE = 281.5651
ARG_OF_PERICENTER = 96.3065
MEAN_ANOMALY   = 264.0390

EPHEMERIS_TYPE = 0
CLASSIFICATION_TYPE = U
NORAD_CAT_ID   = 22286
ELEMENT_SET_NO = 999
REV_AT_EPOCH   = 76914
BSTAR          = .33685E-3
MEAN_MOTION_DOT = .3911E-4
MEAN_MOTION_DDOT = 0

